MALLIGYONG-1            
1 58400U 23179A   24111.20130630  .00013360  00000+0  58679-3 0  9993
2 58400  97.4120 358.9203 0011375 104.6279 255.6219 15.21988970 22901
